{"type": "FeatureCollection", "features": [ {"type": "Feature", "properties": {"norad_id": 45344, "name": "BEIDOU-3 G2 (C60)", "group": "gnss", "lat": 0.03728784127253098, "lon": 44.35100591946256, "alt_km": 35790.948844378814, "timestamp": "2025-12-18T15:47:11.465750+00:00", "meta": {"OBJECT_NAME": "BEIDOU-3 G2 (C60)", "OBJECT_ID": "2020-017A", "EPOCH": "2025-12-18T01:41:31.996608", "MEAN_MOTION": 1.0027506, "ECCENTRICITY": 0.00022263, "INCLINATION": 2.507, "RA_OF_ASC_NODE": 43.9732, "ARG_OF_PERICENTER": 232.7802, "MEAN_ANOMALY": 275.5877, "EPHEMERIS_TYPE": 0, "CLASSIFICATION_TYPE": "U", "NORAD_CAT_ID": 45344, "ELEMENT_SET_NO": 999, "REV_AT_EPOCH": 2144, "BSTAR": 0, "MEAN_MOTION_DOT": -1.18e-06, "MEAN_MOTION_DDOT": 0}, "tle": {"line1": "1 45344U 20017A   25352.07050922 -.00000118  00000+0  00000+0 0  9991", "line2": "2 45344   2.5070  43.9732 0002226 232.7802 275.5877  1.00275060 21443"}}, "geometry": {"type": "Point", "coordinates": [44.35100591946256, 0.03728784127253098]}}, {"type": "Feature", "properties": {"norad_id": 45358, "name": "COSMOS 2545 (760)", "group": "gnss", "lat": 60.80282594573616, "lon": 17.514250978258314, "alt_km": 19152.737005522704, "timestamp": "2025-12-18T15:47:11.465764+00:00", "meta": {"OBJECT_NAME": "COSMOS 2545 (760)", "OBJECT_ID": "2020-018A", "EPOCH": "2025-12-18T02:09:48.426048", "MEAN_MOTION": 2.13102578, "ECCENTRICITY": 0.00116405, "INCLINATION": 64.466, "RA_OF_ASC_NODE": 318.7814, "ARG_OF_PERICENTER": 249.3553, "MEAN_ANOMALY": 110.5113, "EPHEMERIS_TYPE": 0, "CLASSIFICATION_TYPE": "U", "NORAD_CAT_ID": 45358, "ELEMENT_SET_NO": 999, "REV_AT_EPOCH": 4480, "BSTAR": 0, "MEAN_MOTION_DOT": -6.6e-07, "MEAN_MOTION_DDOT": 0}, "tle": {"line1": "1 45358U 20018A   25352.09014382 -.00000066  00000+0  00000+0 0  9991", "line2": "2 45358  64.4660 318.7814 0011640 249.3553 110.5113  2.13102578 44805"}}, "geometry": {"type": "Point", "coordinates": [17.514250978258314, 60.80282594573616]}}, {"type": "Feature", "properties": {"norad_id": 45807, "name": "BEIDOU-3 G3 (C61)", "group": "gnss", "lat": 0.3165557715135643, "lon": 74.94410912393363, "alt_km": 35772.262701324005, "timestamp": "2025-12-18T15:47:11.465778+00:00", "meta": {"OBJECT_NAME": "BEIDOU-3 G3 (C61)", "OBJECT_ID": "2020-040A", "EPOCH": "2025-12-18T03:58:21.586368", "MEAN_MOTION": 1.00271623, "ECCENTRICITY": 0.00064116, "INCLINATION": 2.004, "RA_OF_ASC_NODE": 66.6339, "ARG_OF_PERICENTER": 309.1299, "MEAN_ANOMALY": 241.4399, "EPHEMERIS_TYPE": 0, "CLASSIFICATION_TYPE": "U", "NORAD_CAT_ID": 45807, "ELEMENT_SET_NO": 999, "REV_AT_EPOCH": 2025, "BSTAR": 0, "MEAN_MOTION_DOT": -3.3e-06, "MEAN_MOTION_DDOT": 0}, "tle": {"line1": "1 45807U 20040A   25352.16552762 -.00000330  00000+0  00000+0 0  9996", "line2": "2 45807   2.0040  66.6339 0006411 309.1299 241.4399  1.00271623 20253"}}, "geometry": {"type": "Point", "coordinates": [74.94410912393363, 0.3165557715135643]}}, {"type": "Feature", "properties": {"norad_id": 45854, "name": "GPS BIII-3  (PRN 23)", "group": "gnss", "lat": -47.361534661727084, "lon": -9.863420674614515, "alt_km": 20199.220912726112, "timestamp": "2025-12-18T15:47:11.465790+00:00", "meta": {"OBJECT_NAME": "GPS BIII-3  (PRN 23)", "OBJECT_ID": "2020-041A", "EPOCH": "2025-12-18T05:27:58.178880", "MEAN_MOTION": 2.00562003, "ECCENTRICITY": 0.0060605, "INCLINATION": 56.5506, "RA_OF_ASC_NODE": 35.9719, "ARG_OF_PERICENTER": 203.6022, "MEAN_ANOMALY": 143.4254, "EPHEMERIS_TYPE": 0, "CLASSIFICATION_TYPE": "U", "NORAD_CAT_ID": 45854, "ELEMENT_SET_NO": 999, "REV_AT_EPOCH": 4040, "BSTAR": 0, "MEAN_MOTION_DOT": -7e-07, "MEAN_MOTION_DDOT": 0}, "tle": {"line1": "1 45854U 20041A   25352.22775670 -.00000070  00000+0  00000+0 0  9992", "line2": "2 45854  56.5506  35.9719 0060605 203.6022 143.4254  2.00562003 40400"}}, "geometry": {"type": "Point", "coordinates": [-9.863420674614515, -47.361534661727084]}}, {"type": "Feature", "properties": {"norad_id": 46114, "name": "GALAXY 30 (WAAS/PRN 135)", "group": "gnss", "lat": -0.015340417521477563, "lon": -160.70965588116766, "alt_km": 35782.80045781729, "timestamp": "2025-12-18T15:47:11.465801+00:00", "meta": {"OBJECT_NAME": "GALAXY 30 (WAAS/PRN 135)", "OBJECT_ID": "2020-056C", "EPOCH": "2025-12-18T05:46:06.470688", "MEAN_MOTION": 1.00272773, "ECCENTRICITY": 0.00020182, "INCLINATION": 0.0022, "RA_OF_ASC_NODE": 348.5293, "ARG_OF_PERICENTER": 280.4289, "MEAN_ANOMALY": 139.6817, "EPHEMERIS_TYPE": 0, "CLASSIFICATION_TYPE": "U", "NORAD_CAT_ID": 46114, "ELEMENT_SET_NO": 999, "REV_AT_EPOCH": 1947, "BSTAR": 0, "MEAN_MOTION_DOT": 6.2e-07, "MEAN_MOTION_DDOT": 0}, "tle": {"line1": "1 46114U 20056C   25352.24035267  .00000062  00000+0  00000+0 0  9991", "line2": "2 46114   0.0022 348.5293 0002018 280.4289 139.6817  1.00272773 19475"}}, "geometry": {"type": "Point", "coordinates": [-160.70965588116766, -0.015340417521477563]}}, {"type": "Feature", "properties": {"norad_id": 46805, "name": "COSMOS 2547 (705K)", "group": "gnss", "lat": -57.38772613427667, "lon": 150.51576549244595, "alt_km": 19129.059046480186, "timestamp": "2025-12-18T15:47:11.465813+00:00", "meta": {"OBJECT_NAME": "COSMOS 2547 (705K)", "OBJECT_ID": "2020-075A", "EPOCH": "2025-12-17T08:09:16.456320", "MEAN_MOTION": 2.1310013, "ECCENTRICITY": 0.0006169, "INCLINATION": 64.5962, "RA_OF_ASC_NODE": 198.5429, "ARG_OF_PERICENTER": 228.3795, "MEAN_ANOMALY": 131.6499, "EPHEMERIS_TYPE": 0, "CLASSIFICATION_TYPE": "U", "NORAD_CAT_ID": 46805, "ELEMENT_SET_NO": 999, "REV_AT_EPOCH": 4003, "BSTAR": 0, "MEAN_MOTION_DOT": 1.12e-06, "MEAN_MOTION_DDOT": 0}, "tle": {"line1": "1 46805U 20075A   25351.33977380  .00000112  00000+0  00000+0 0  9995", "line2": "2 46805  64.5962 198.5429 0006169 228.3795 131.6499  2.13100130 40034"}}, "geometry": {"type": "Point", "coordinates": [150.51576549244595, -57.38772613427667]}}, {"type": "Feature", "properties": {"norad_id": 46826, "name": "GPS BIII-4  (PRN 14)", "group": "gnss", "lat": -54.00133943558418, "lon": 126.85781503279112, "alt_km": 20115.984790457842, "timestamp": "2025-12-18T15:47:11.465826+00:00", "meta": {"OBJECT_NAME": "GPS BIII-4  (PRN 14)", "OBJECT_ID": "2020-078A", "EPOCH": "2025-12-16T01:06:13.902336", "MEAN_MOTION": 2.00566891, "ECCENTRICITY": 0.00647554, "INCLINATION": 54.0145, "RA_OF_ASC_NODE": 218.2068, "ARG_OF_PERICENTER": 203.3828, "MEAN_ANOMALY": 339.3936, "EPHEMERIS_TYPE": 0, "CLASSIFICATION_TYPE": "U", "NORAD_CAT_ID": 46826, "ELEMENT_SET_NO": 999, "REV_AT_EPOCH": 3783, "BSTAR": 0, "MEAN_MOTION_DOT": 6.7e-07, "MEAN_MOTION_DDOT": 0}, "tle": {"line1": "1 46826U 20078A   25350.04599424  .00000067  00000+0  00000+0 0  9996", "line2": "2 46826  54.0145 218.2068 0064755 203.3828 339.3936  2.00566891 37831"}}, "geometry": {"type": "Point", "coordinates": [126.85781503279112, -54.00133943558418]}}, {"type": "Feature", "properties": {"norad_id": 48859, "name": "GPS BIII-5  (PRN 11)", "group": "gnss", "lat": 55.08302082491053, "lon": 75.85458874470275, "alt_km": 20227.045609120607, "timestamp": "2025-12-18T15:47:11.465838+00:00", "meta": {"OBJECT_NAME": "GPS BIII-5  (PRN 11)", "OBJECT_ID": "2021-054A", "EPOCH": "2025-12-08T04:14:32.423424", "MEAN_MOTION": 2.00553627, "ECCENTRICITY": 0.0024678, "INCLINATION": 55.2581, "RA_OF_ASC_NODE": 340.1367, "ARG_OF_PERICENTER": 233.3994, "MEAN_ANOMALY": 212.8593, "EPHEMERIS_TYPE": 0, "CLASSIFICATION_TYPE": "U", "NORAD_CAT_ID": 48859, "ELEMENT_SET_NO": 999, "REV_AT_EPOCH": 3292, "BSTAR": 0, "MEAN_MOTION_DOT": -8.6e-07, "MEAN_MOTION_DDOT": 0}, "tle": {"line1": "1 48859U 21054A   25342.17676416 -.00000086  00000+0  00000+0 0  9993", "line2": "2 48859  55.2581 340.1367 0024678 233.3994 212.8593  2.00553627 32922"}}, "geometry": {"type": "Point", "coordinates": [75.85458874470275, 55.08302082491053]}}, {"type": "Feature", "properties": {"norad_id": 49336, "name": "QZS-1R (QZSS/PRN 196)", "group": "gnss", "lat": 14.553749347093188, "lon": 102.31549626235848, "alt_km": 36835.214947180604, "timestamp": "2025-12-18T15:47:11.465852+00:00", "meta": {"OBJECT_NAME": "QZS-1R (QZSS/PRN 196)", "OBJECT_ID": "2021-096A", "EPOCH": "2025-12-17T14:00:33.617952", "MEAN_MOTION": 1.00256208, "ECCENTRICITY": 0.07563637, "INCLINATION": 37.0872, "RA_OF_ASC_NODE": 82.2877, "ARG_OF_PERICENTER": 271.4154, "MEAN_ANOMALY": 77.3787, "EPHEMERIS_TYPE": 0, "CLASSIFICATION_TYPE": "U", "NORAD_CAT_ID": 49336, "ELEMENT_SET_NO": 999, "REV_AT_EPOCH": 1518, "BSTAR": 0, "MEAN_MOTION_DOT": -2.76e-06, "MEAN_MOTION_DDOT": 0}, "tle": {"line1": "1 49336U 21096A   25351.58372243 -.00000276  00000+0  00000+0 0  9997", "line2": "2 49336  37.0872  82.2877 0756363 271.4154  77.3787  1.00256208 15180"}}, "geometry": {"type": "Point", "coordinates": [102.31549626235848, 14.553749347093188]}}, {"type": "Feature", "properties": {"norad_id": 49809, "name": "GSAT0223 (GALILEO 27)", "group": "gnss", "lat": -20.850324007486048, "lon": -179.24197787448887, "alt_km": 23216.24910237779, "timestamp": "2025-12-18T15:47:11.465865+00:00", "meta": {"OBJECT_NAME": "GSAT0223 (GALILEO 27)", "OBJECT_ID": "2021-116A", "EPOCH": "2025-12-16T20:22:21.643104", "MEAN_MOTION": 1.70476101, "ECCENTRICITY": 0.00044272, "INCLINATION": 57.2185, "RA_OF_ASC_NODE": 346.6017, "ARG_OF_PERICENTER": 254.1798, "MEAN_ANOMALY": 280.7094, "EPHEMERIS_TYPE": 0, "CLASSIFICATION_TYPE": "U", "NORAD_CAT_ID": 49809, "ELEMENT_SET_NO": 999, "REV_AT_EPOCH": 2507, "BSTAR": 0, "MEAN_MOTION_DOT": -7.9e-07, "MEAN_MOTION_DDOT": 0}, "tle": {"line1": "1 49809U 21116A   25350.84886161 -.00000079  00000+0  00000+0 0  9993", "line2": "2 49809  57.2185 346.6017 0004427 254.1798 280.7094  1.70476101 25071"}}, "geometry": {"type": "Point", "coordinates": [-179.24197787448887, -20.850324007486048]}}]}